{
    "type": "FeatureCollection",
    "features": [
        {
            "type": "Feature",
            "properties": {
                "id": 1566083,
                "name": "Ho Chi Minh City",
                "timezone": "Asia/Ho_Chi_Minh",
                "elevation": 7,
                "population": 14002598,
                "country": "Vietnam",
                "admin1": "Ho Chi Minh City (HCMC)",
                "admin2": null,
                "admin3": null,
                "admin4": null
            },
            "geometry": {
                "type": "Point",
                "coordinates": [
                    106.62965,
                    10.82302
                ]
            }
        },
        {
            "type": "Feature",
            "properties": {
                "id": 1587923,
                "name": "Bien Hoa",
                "timezone": "Asia/Ho_Chi_Minh",
                "elevation": 6,
                "population": 1272235,
                "country": "Vietnam",
                "admin1": "Dong Nai",
                "admin2": "Thành Phố Biên Hòa",
                "admin3": null,
                "admin4": null
            },
            "geometry": {
                "type": "Point",
                "coordinates": [
                    106.82432,
                    10.94469
                ]
            }
        },
        {
            "type": "Feature",
            "properties": {
                "id": 9075789,
                "name": "Long Khánh",
                "timezone": "Asia/Ho_Chi_Minh",
                "elevation": 175,
                "population": 171276,
                "country": "Vietnam",
                "admin1": "Dong Nai",
                "admin2": "Thị Xã Long Khánh",
                "admin3": null,
                "admin4": null
            },
            "geometry": {
                "type": "Point",
                "coordinates": [
                    107.24783,
                    10.92655
                ]
            }
        },
        {
            "type": "Feature",
            "properties": {
                "id": 1565022,
                "name": "Thu Dau Mot",
                "timezone": "Asia/Ho_Chi_Minh",
                "elevation": 20,
                "population": 373105,
                "country": "Vietnam",
                "admin1": "Ho Chi Minh City (HCMC)",
                "admin2": "Thành Phố Thủ Dầu Một",
                "admin3": null,
                "admin4": null
            },
            "geometry": {
                "type": "Point",
                "coordinates": [
                    106.6519,
                    10.9804
                ]
            }
        },
        {
            "type": "Feature",
            "properties": {
                "id": 12382296,
                "name": "Thuận An",
                "timezone": "Asia/Ho_Chi_Minh",
                "elevation": 24,
                "population": 588616,
                "country": "Vietnam",
                "admin1": "Ho Chi Minh City (HCMC)",
                "admin2": "Thành Phố Thuận An",
                "admin3": null,
                "admin4": null
            },
            "geometry": {
                "type": "Point",
                "coordinates": [
                    106.71428,
                    10.9239
                ]
            }
        },
        {
            "type": "Feature",
            "properties": {
                "id": 1583518,
                "name": "Dĩ An",
                "timezone": "Asia/Ho_Chi_Minh",
                "elevation": 32,
                "population": 463023,
                "country": "Vietnam",
                "admin1": "Ho Chi Minh City (HCMC)",
                "admin2": "Thành Phố Dĩ An",
                "admin3": null,
                "admin4": null
            },
            "geometry": {
                "type": "Point",
                "coordinates": [
                    106.7694,
                    10.90682
                ]
            }
        },
        {
            "type": "Feature",
            "properties": {
                "id": 8594709,
                "name": "Thanh Pho Ba Ria",
                "timezone": "Asia/Ho_Chi_Minh",
                "elevation": 8,
                "population": 235192,
                "country": "Vietnam",
                "admin1": "Ho Chi Minh City (HCMC)",
                "admin2": "Thành Phố Bà Rịa",
                "admin3": null,
                "admin4": null
            },
            "geometry": {
                "type": "Point",
                "coordinates": [
                    107.1685,
                    10.49626
                ]
            }
        },
        {
            "type": "Feature",
            "properties": {
                "id": 1562414,
                "name": "Vũng Tàu",
                "timezone": "Asia/Ho_Chi_Minh",
                "elevation": 10,
                "population": 464860,
                "country": "Vietnam",
                "admin1": "Ho Chi Minh City (HCMC)",
                "admin2": "Thành Phố Vũng Tàu",
                "admin3": null,
                "admin4": null
            },
            "geometry": {
                "type": "Point",
                "coordinates": [
                    107.08426,
                    10.34599
                ]
            }
        },
        {
            "type": "Feature",
            "properties": {
                "id": 1566559,
                "name": "Tay Ninh",
                "timezone": "Asia/Ho_Chi_Minh",
                "elevation": 18,
                "population": 135254,
                "country": "Vietnam",
                "admin1": "Tay Ninh",
                "admin2": "Thành Phố Tây Ninh",
                "admin3": null,
                "admin4": null
            },
            "geometry": {
                "type": "Point",
                "coordinates": [
                    106.09828,
                    11.31004
                ]
            }
        },
        {
            "type": "Feature",
            "properties": {
                "id": 1582436,
                "name": "Dong Xoai",
                "timezone": "Asia/Ho_Chi_Minh",
                "elevation": 90,
                "population": 168000,
                "country": "Vietnam",
                "admin1": "Dong Nai",
                "admin2": "Thị Xã Đồng Xoài",
                "admin3": null,
                "admin4": null
            },
            "geometry": {
                "type": "Point",
                "coordinates": [
                    106.88324,
                    11.53495
                ]
            }
        },
        {
            "type": "Feature",
            "properties": {
                "@circle": {
                    "type": "Mercator",
                    "center": [
                        106.70922286139067,
                        11.001609557669633
                    ]
                }
            },
            "geometry": {
                "type": "Polygon",
                "coordinates": [
                    [
                        [
                            107.5304,
                            11.00161
                        ],
                        [
                            107.52878,
                            11.05222
                        ],
                        [
                            107.523925,
                            11.102621
                        ],
                        [
                            107.515855,
                            11.152616
                        ],
                        [
                            107.504601,
                            11.202006
                        ],
                        [
                            107.490209,
                            11.250598
                        ],
                        [
                            107.472734,
                            11.298199
                        ],
                        [
                            107.452246,
                            11.344622
                        ],
                        [
                            107.428826,
                            11.389685
                        ],
                        [
                            107.402566,
                            11.433211
                        ],
                        [
                            107.373569,
                            11.475029
                        ],
                        [
                            107.341951,
                            11.514973
                        ],
                        [
                            107.307835,
                            11.552888
                        ],
                        [
                            107.271357,
                            11.588625
                        ],
                        [
                            107.232661,
                            11.622043
                        ],
                        [
                            107.191899,
                            11.653011
                        ],
                        [
                            107.149232,
                            11.681409
                        ],
                        [
                            107.104828,
                            11.707124
                        ],
                        [
                            107.058863,
                            11.730056
                        ],
                        [
                            107.011518,
                            11.750115
                        ],
                        [
                            106.962981,
                            11.767223
                        ],
                        [
                            106.913441,
                            11.781313
                        ],
                        [
                            106.863096,
                            11.792329
                        ],
                        [
                            106.812144,
                            11.800229
                        ],
                        [
                            106.760785,
                            11.804981
                        ],
                        [
                            106.709223,
                            11.806567
                        ],
                        [
                            106.657661,
                            11.804981
                        ],
                        [
                            106.606302,
                            11.800229
                        ],
                        [
                            106.55535,
                            11.792329
                        ],
                        [
                            106.505004,
                            11.781313
                        ],
                        [
                            106.455465,
                            11.767223
                        ],
                        [
                            106.406927,
                            11.750115
                        ],
                        [
                            106.359583,
                            11.730056
                        ],
                        [
                            106.313618,
                            11.707124
                        ],
                        [
                            106.269214,
                            11.681409
                        ],
                        [
                            106.226547,
                            11.653011
                        ],
                        [
                            106.185785,
                            11.622043
                        ],
                        [
                            106.147088,
                            11.588625
                        ],
                        [
                            106.11061,
                            11.552888
                        ],
                        [
                            106.076495,
                            11.514973
                        ],
                        [
                            106.044877,
                            11.475029
                        ],
                        [
                            106.01588,
                            11.433211
                        ],
                        [
                            105.98962,
                            11.389685
                        ],
                        [
                            105.9662,
                            11.344622
                        ],
                        [
                            105.945712,
                            11.298199
                        ],
                        [
                            105.928237,
                            11.250598
                        ],
                        [
                            105.913844,
                            11.202006
                        ],
                        [
                            105.902591,
                            11.152616
                        ],
                        [
                            105.894521,
                            11.102621
                        ],
                        [
                            105.889666,
                            11.05222
                        ],
                        [
                            105.888046,
                            11.00161
                        ],
                        [
                            105.889666,
                            10.950991
                        ],
                        [
                            105.894521,
                            10.900563
                        ],
                        [
                            105.902591,
                            10.850526
                        ],
                        [
                            105.913844,
                            10.801076
                        ],
                        [
                            105.928237,
                            10.752411
                        ],
                        [
                            105.945712,
                            10.704722
                        ],
                        [
                            105.9662,
                            10.658197
                        ],
                        [
                            105.98962,
                            10.613022
                        ],
                        [
                            106.01588,
                            10.569375
                        ],
                        [
                            106.044877,
                            10.527429
                        ],
                        [
                            106.076495,
                            10.48735
                        ],
                        [
                            106.11061,
                            10.449298
                        ],
                        [
                            106.147088,
                            10.413423
                        ],
                        [
                            106.185785,
                            10.379867
                        ],
                        [
                            106.226547,
                            10.348765
                        ],
                        [
                            106.269214,
                            10.320239
                        ],
                        [
                            106.313618,
                            10.294402
                        ],
                        [
                            106.359583,
                            10.271358
                        ],
                        [
                            106.406927,
                            10.251198
                        ],
                        [
                            106.455465,
                            10.234002
                        ],
                        [
                            106.505004,
                            10.219838
                        ],
                        [
                            106.55535,
                            10.208763
                        ],
                        [
                            106.606302,
                            10.20082
                        ],
                        [
                            106.657661,
                            10.196042
                        ],
                        [
                            106.709223,
                            10.194447
                        ],
                        [
                            106.760785,
                            10.196042
                        ],
                        [
                            106.812144,
                            10.20082
                        ],
                        [
                            106.863096,
                            10.208763
                        ],
                        [
                            106.913441,
                            10.219838
                        ],
                        [
                            106.962981,
                            10.234002
                        ],
                        [
                            107.011518,
                            10.251198
                        ],
                        [
                            107.058863,
                            10.271358
                        ],
                        [
                            107.104828,
                            10.294402
                        ],
                        [
                            107.149232,
                            10.320239
                        ],
                        [
                            107.191899,
                            10.348765
                        ],
                        [
                            107.232661,
                            10.379867
                        ],
                        [
                            107.271357,
                            10.413423
                        ],
                        [
                            107.307835,
                            10.449298
                        ],
                        [
                            107.341951,
                            10.48735
                        ],
                        [
                            107.373569,
                            10.527429
                        ],
                        [
                            107.402566,
                            10.569375
                        ],
                        [
                            107.428826,
                            10.613022
                        ],
                        [
                            107.452246,
                            10.658197
                        ],
                        [
                            107.472734,
                            10.704722
                        ],
                        [
                            107.490209,
                            10.752411
                        ],
                        [
                            107.504601,
                            10.801076
                        ],
                        [
                            107.515855,
                            10.850526
                        ],
                        [
                            107.523925,
                            10.900563
                        ],
                        [
                            107.5304,
                            11.00161
                        ]
                    ]
                ]
            }
        }
    ]
}